25042,IRIDIUM 39,1997,99.38,-1.0,-,86.39,Inactive,0,LEO,USA,USA,Unknown,Unknown,Unknown,1 25042U 97069D   25088.37634829  .00001904  00000+0  49573-3 0  9993,2 25042  86.3881 245.3334 0016947 207.5710 152.4597 14.49051802437407,14.49051802,0.0016947,LEO
25043,IRIDIUM 38,1997,100.14,-1.0,-,86.39,Inactive,0,LEO,USA,USA,Unknown,Unknown,Unknown,1 25043U 97069E   25088.21966348  .00001172  00000+0  38138-3 0  9993,2 25043  86.3897 266.8065 0002828  47.8433 312.3005 14.38004438434469,14.38004438,0.0002828,LEO
25077,IRIDIUM 42,1997,100.26,-1.0,-,86.39,Inactive,0,LEO,PRC,USA,Unknown,Unknown,Unknown,1 25077U 97077A   25088.26719182  .00001060  00000+0  35671-3 0  9991,2 25077  86.3900 272.8642 0002415  73.3924 286.7538 14.36248575429728,14.36248575,0.0002415,LEO
25078,IRIDIUM 44,1997,99.99,-1.0,-,86.39,Inactive,0,LEO,PRC,USA,Unknown,Unknown,Unknown,1 25078U 97077B   25088.36781840  .00001214  00000+0  37834-3 0  9997,2 25078  86.3912 254.9380 0000724  29.6295 330.4945 14.40135844432214,14.40135844,7.24e-05,LEO
25104,IRIDIUM 45,1997,94.81,-1.0,-,86.35,Inactive,0,LEO,USA,USA,Unknown,Unknown,Unknown,1 25104U 97082A   25088.36832672  .00028840  00000+0  11379-2 0  9992,2 25104  86.3539  86.5563 0121145 269.9883  88.7478 15.18775795439913,15.18775795,0.0121145,LEO
25105,IRIDIUM 24,1997,99.86,-1.0,-,86.39,Inactive,0,LEO,USA,USA,Unknown,Unknown,Unknown,1 25105U 97082B   25088.30438316  .00001093  00000+0  32730-3 0  9990,2 25105  86.3867 114.1971 0010856 354.1001   6.0069 14.41978671431705,14.41978671,0.0010856,LEO
25262,IRIDIUM 51,1998,93.93,-1.0,-,86.38,Inactive,0,LEO,PRC,USA,Unknown,Unknown,Unknown,1 25262U 98018A   25088.06180397  .00038296  00000+0  10220-2 0  9994,2 25262  86.3803  95.3171 0098158 194.7274 165.1114 15.33106535434729,15.33106535,0.0098158,LEO
25273,IRIDIUM 57,1998,100.29,-1.0,-,86.4,Inactive,0,LEO,USA,USA,Unknown,Unknown,Unknown,1 25273U 98019B   25088.30876384  .00000821  00000+0  27722-3 0  9991,2 25273  86.4034 178.7028 0002174  93.1205 267.0241 14.35816745413322,14.35816745,0.0002174,LEO
